{"type": "FeatureCollection", "features": [ {"type": "Feature", "properties": {"norad_id": 43437, "name": "SENTINEL-3B", "group": "resource", "lat": -71.65960105578634, "lon": -149.77482965222498, "alt_km": 811.0232440255295, "timestamp": "2025-12-18T08:58:43.049274+00:00", "meta": {"OBJECT_NAME": "SENTINEL-3B", "OBJECT_ID": "2018-039A", "EPOCH": "2025-12-17T18:19:41.265120", "MEAN_MOTION": 14.26735912, "ECCENTRICITY": 0.00016261, "INCLINATION": 98.6263, "RA_OF_ASC_NODE": 56.8769, "ARG_OF_PERICENTER": 96.5955, "MEAN_ANOMALY": 263.5411, "EPHEMERIS_TYPE": 0, "CLASSIFICATION_TYPE": "U", "NORAD_CAT_ID": 43437, "ELEMENT_SET_NO": 999, "REV_AT_EPOCH": 39825, "BSTAR": 6.7233445e-05, "MEAN_MOTION_DOT": 1.19e-06, "MEAN_MOTION_DDOT": 0}, "tle": {"line1": "1 43437U 18039A   25351.76367205  .00000119  00000+0  67233-4 0  9999", "line2": "2 43437  98.6263  56.8769 0001626  96.5955 263.5411 14.26735912398251"}}, "geometry": {"type": "Point", "coordinates": [-149.77482965222498, -71.65960105578634]}}, {"type": "Feature", "properties": {"norad_id": 43461, "name": "GAOFEN-5 01", "group": "resource", "lat": -24.7273013783009, "lon": 131.52223748183803, "alt_km": 697.5355920727134, "timestamp": "2025-12-18T08:58:43.049284+00:00", "meta": {"OBJECT_NAME": "GAOFEN-5 01", "OBJECT_ID": "2018-043A", "EPOCH": "2025-12-17T18:53:18.600576", "MEAN_MOTION": 14.60415253, "ECCENTRICITY": 6.536e-05, "INCLINATION": 98.4331, "RA_OF_ASC_NODE": 314.8425, "ARG_OF_PERICENTER": 314.2673, "MEAN_ANOMALY": 45.8473, "EPHEMERIS_TYPE": 0, "CLASSIFICATION_TYPE": "U", "NORAD_CAT_ID": 43461, "ELEMENT_SET_NO": 999, "REV_AT_EPOCH": 40521, "BSTAR": 8.6212059e-05, "MEAN_MOTION_DOT": 3.69e-06, "MEAN_MOTION_DDOT": 0}, "tle": {"line1": "1 43461U 18043A   25351.78702084  .00000369  00000+0  86212-4 0  9996", "line2": "2 43461  98.4331 314.8425 0000653 314.2673  45.8473 14.60415253405219"}}, "geometry": {"type": "Point", "coordinates": [131.52223748183803, -24.7273013783009]}}, {"type": "Feature", "properties": {"norad_id": 43484, "name": "GAOFEN-6", "group": "resource", "lat": 12.272243551888725, "lon": -121.83860710870914, "alt_km": 646.0742955327833, "timestamp": "2025-12-18T08:58:43.049294+00:00", "meta": {"OBJECT_NAME": "GAOFEN-6", "OBJECT_ID": "2018-048A", "EPOCH": "2025-12-17T22:27:55.139040", "MEAN_MOTION": 14.76574362, "ECCENTRICITY": 0.00129929, "INCLINATION": 97.8031, "RA_OF_ASC_NODE": 56.0287, "ARG_OF_PERICENTER": 48.344, "MEAN_ANOMALY": 311.888, "EPHEMERIS_TYPE": 0, "CLASSIFICATION_TYPE": "U", "NORAD_CAT_ID": 43484, "ELEMENT_SET_NO": 999, "REV_AT_EPOCH": 40664, "BSTAR": 5.9793256e-05, "MEAN_MOTION_DOT": 3.68e-06, "MEAN_MOTION_DDOT": 0}, "tle": {"line1": "1 43484U 18048A   25351.93605485  .00000368  00000+0  59793-4 0  9993", "line2": "2 43484  97.8031  56.0287 0012992  48.3440 311.8880 14.76574362406641"}}, "geometry": {"type": "Point", "coordinates": [-121.83860710870914, 12.272243551888725]}}, {"type": "Feature", "properties": {"norad_id": 43585, "name": "GAOFEN-11 01", "group": "resource", "lat": 6.57816455162562, "lon": 54.43169119365115, "alt_km": 420.4190118190236, "timestamp": "2025-12-18T08:58:43.049304+00:00", "meta": {"OBJECT_NAME": "GAOFEN-11 01", "OBJECT_ID": "2018-063A", "EPOCH": "2025-12-17T23:38:59.432640", "MEAN_MOTION": 15.49362625, "ECCENTRICITY": 0.00040353, "INCLINATION": 97.1562, "RA_OF_ASC_NODE": 54.8763, "ARG_OF_PERICENTER": 286.2168, "MEAN_ANOMALY": 73.864, "EPHEMERIS_TYPE": 0, "CLASSIFICATION_TYPE": "U", "NORAD_CAT_ID": 43585, "ELEMENT_SET_NO": 999, "REV_AT_EPOCH": 41223, "BSTAR": 0.00019137757, "MEAN_MOTION_DOT": 0.000104, "MEAN_MOTION_DDOT": 0}, "tle": {"line1": "1 43585U 18063A   25351.98541010  .00010400  00000+0  19138-3 0  9996", "line2": "2 43585  97.1562  54.8763 0004035 286.2168  73.8640 15.49362625412238"}}, "geometry": {"type": "Point", "coordinates": [54.43169119365115, 6.57816455162562]}}, {"type": "Feature", "properties": {"norad_id": 43613, "name": "ICESAT-2", "group": "resource", "lat": 35.47376655716035, "lon": -119.17302612972973, "alt_km": 478.79386567414076, "timestamp": "2025-12-18T08:58:43.049314+00:00", "meta": {"OBJECT_NAME": "ICESAT-2", "OBJECT_ID": "2018-070A", "EPOCH": "2025-12-17T21:49:24.175776", "MEAN_MOTION": 15.28281091, "ECCENTRICITY": 0.00027717, "INCLINATION": 92.0052, "RA_OF_ASC_NODE": 242.1322, "ARG_OF_PERICENTER": 130.1502, "MEAN_ANOMALY": 229.999, "EPHEMERIS_TYPE": 0, "CLASSIFICATION_TYPE": "U", "NORAD_CAT_ID": 43613, "ELEMENT_SET_NO": 999, "REV_AT_EPOCH": 40477, "BSTAR": 0.00037799007, "MEAN_MOTION_DOT": 0.00010412, "MEAN_MOTION_DDOT": 0}, "tle": {"line1": "1 43613U 18070A   25351.90930759  .00010412  00000+0  37799-3 0  9996", "line2": "2 43613  92.0052 242.1322 0002771 130.1502 229.9990 15.28281091404771"}}, "geometry": {"type": "Point", "coordinates": [-119.17302612972973, 35.47376655716035]}}, {"type": "Feature", "properties": {"norad_id": 43719, "name": "HYSIS", "group": "resource", "lat": -63.83072515394258, "lon": -141.32711569761284, "alt_km": 641.5579352934928, "timestamp": "2025-12-18T08:58:43.049324+00:00", "meta": {"OBJECT_NAME": "HYSIS", "OBJECT_ID": "2018-096A", "EPOCH": "2025-12-17T23:45:13.552416", "MEAN_MOTION": 14.78658145, "ECCENTRICITY": 0.0001166, "INCLINATION": 98.0098, "RA_OF_ASC_NODE": 54.942, "ARG_OF_PERICENTER": 50.8058, "MEAN_ANOMALY": 309.3256, "EPHEMERIS_TYPE": 0, "CLASSIFICATION_TYPE": "U", "NORAD_CAT_ID": 43719, "ELEMENT_SET_NO": 999, "REV_AT_EPOCH": 38064, "BSTAR": 9.0317072e-05, "MEAN_MOTION_DOT": 6.1e-06, "MEAN_MOTION_DDOT": 0}, "tle": {"line1": "1 43719U 18096A   25351.98974019  .00000610  00000+0  90317-4 0  9991", "line2": "2 43719  98.0098  54.9420 0001166  50.8058 309.3256 14.78658145380642"}}, "geometry": {"type": "Point", "coordinates": [-141.32711569761284, -63.83072515394258]}}, {"type": "Feature", "properties": {"norad_id": 43783, "name": "KAZSTSAT", "group": "resource", "lat": -0.3253706179785766, "lon": -152.72558583377827, "alt_km": 574.3647958626852, "timestamp": "2025-12-18T08:58:43.049335+00:00", "meta": {"OBJECT_NAME": "KAZSTSAT", "OBJECT_ID": "2018-099AB", "EPOCH": "2025-12-17T16:09:36.328896", "MEAN_MOTION": 14.99362131, "ECCENTRICITY": 0.00059123, "INCLINATION": 97.4541, "RA_OF_ASC_NODE": 26.6464, "ARG_OF_PERICENTER": 308.3167, "MEAN_ANOMALY": 51.7525, "EPHEMERIS_TYPE": 0, "CLASSIFICATION_TYPE": "U", "NORAD_CAT_ID": 43783, "ELEMENT_SET_NO": 999, "REV_AT_EPOCH": 38410, "BSTAR": 4.6014093e-05, "MEAN_MOTION_DOT": 5.07e-06, "MEAN_MOTION_DDOT": 0}, "tle": {"line1": "1 43783U 18099AB  25351.67333714  .00000507  00000+0  46014-4 0  9992", "line2": "2 43783  97.4541  26.6464 0005912 308.3167  51.7525 14.99362131384100"}}, "geometry": {"type": "Point", "coordinates": [-152.72558583377827, -0.3253706179785766]}}, {"type": "Feature", "properties": {"norad_id": 43831, "name": "SAUDISAT 5A", "group": "resource", "lat": 45.699833701708144, "lon": 44.871507972797026, "alt_km": 476.98220312929425, "timestamp": "2025-12-18T08:58:43.049345+00:00", "meta": {"OBJECT_NAME": "SAUDISAT 5A", "OBJECT_ID": "2018-102A", "EPOCH": "2025-12-17T23:19:58.899072", "MEAN_MOTION": 15.25720848, "ECCENTRICITY": 0.00115318, "INCLINATION": 97.3352, "RA_OF_ASC_NODE": 52.0627, "ARG_OF_PERICENTER": 60.1708, "MEAN_ANOMALY": 300.0675, "EPHEMERIS_TYPE": 0, "CLASSIFICATION_TYPE": "U", "NORAD_CAT_ID": 43831, "ELEMENT_SET_NO": 999, "REV_AT_EPOCH": 38802, "BSTAR": 0.00020517373, "MEAN_MOTION_DOT": 5.169e-05, "MEAN_MOTION_DDOT": 0}, "tle": {"line1": "1 43831U 18102A   25351.97220948  .00005169  00000+0  20517-3 0  9996", "line2": "2 43831  97.3352  52.0627 0011531  60.1708 300.0675 15.25720848388029"}}, "geometry": {"type": "Point", "coordinates": [44.871507972797026, 45.699833701708144]}}, {"type": "Feature", "properties": {"norad_id": 43833, "name": "SAUDISAT 5B", "group": "resource", "lat": 72.6332409234789, "lon": -100.43623415997409, "alt_km": 474.6263675038399, "timestamp": "2025-12-18T08:58:43.049355+00:00", "meta": {"OBJECT_NAME": "SAUDISAT 5B", "OBJECT_ID": "2018-102C", "EPOCH": "2025-12-17T23:04:32.969280", "MEAN_MOTION": 15.26070728, "ECCENTRICITY": 0.00122722, "INCLINATION": 97.3448, "RA_OF_ASC_NODE": 54.8001, "ARG_OF_PERICENTER": 62.3242, "MEAN_ANOMALY": 297.924, "EPHEMERIS_TYPE": 0, "CLASSIFICATION_TYPE": "U", "NORAD_CAT_ID": 43833, "ELEMENT_SET_NO": 999, "REV_AT_EPOCH": 38813, "BSTAR": 0.00018942581, "MEAN_MOTION_DOT": 4.818e-05, "MEAN_MOTION_DDOT": 0}, "tle": {"line1": "1 43833U 18102C   25351.96149270  .00004818  00000+0  18943-3 0  9995", "line2": "2 43833  97.3448  54.8001 0012272  62.3242 297.9240 15.26070728388133"}}, "geometry": {"type": "Point", "coordinates": [-100.43623415997409, 72.6332409234789]}}, {"type": "Feature", "properties": {"norad_id": 44622, "name": "GAOFEN-10R", "group": "resource", "lat": -71.5682556659223, "lon": 94.84639947142524, "alt_km": 631.2970016633808, "timestamp": "2025-12-18T08:58:43.049366+00:00", "meta": {"OBJECT_NAME": "GAOFEN-10R", "OBJECT_ID": "2019-066A", "EPOCH": "2025-12-17T23:44:30.427584", "MEAN_MOTION": 14.82809676, "ECCENTRICITY": 0.00075275, "INCLINATION": 98.0284, "RA_OF_ASC_NODE": 299.516, "ARG_OF_PERICENTER": 26.7512, "MEAN_ANOMALY": 333.4088, "EPHEMERIS_TYPE": 0, "CLASSIFICATION_TYPE": "U", "NORAD_CAT_ID": 44622, "ELEMENT_SET_NO": 999, "REV_AT_EPOCH": 33552, "BSTAR": 0.00016489695, "MEAN_MOTION_DOT": 1.28e-05, "MEAN_MOTION_DDOT": 0}, "tle": {"line1": "1 44622U 19066A   25351.98924106  .00001280  00000+0  16490-3 0  9998", "line2": "2 44622  98.0284 299.5160 0007527  26.7512 333.4088 14.82809676335525"}}, "geometry": {"type": "Point", "coordinates": [94.84639947142524, -71.5682556659223]}}]}